0 ARIANE 44L+ DEB
1 28577U 92021R   13266.39099237 -.00000118  00000-0  00000+0 0  9689
2 28577 003.3669 241.3977 6992568 052.1988 019.7241 02.23361553 73801
0 ARIANE 44L+ DEB
1 28577U 92021R   13267.28765876 -.00000118  00000-0  00000+0 0  9698
2 28577 003.3647 241.0592 6993032 052.8300 020.7030 02.23363165 73820
0 ARIANE 44L+ DEB
1 28577U 92021R   13267.74671417 -.00000115  00000-0  00000+0 0  9705
2 28577 003.3626 240.8962 6992862 053.1449 029.8221 02.23363382 73837
0 ARIANE 44L+ DEB
1 28577U 92021R   13272.19843340 -.00000033  00000-0  00000+0 0  9716
2 28577 003.3502 239.2234 6994474 056.2735 009.3726 02.23367921 73934
0 ARIANE 44L+ DEB
1 28577U 92021R   13279.40831550 -.00000023  00000-0  00000+0 0  9727
2 28577 003.3299 236.4636 6995554 061.4074 046.8499 02.23373434 74093
0 ARIANE 44L+ DEB
1 28577U 92021R   13280.27329463 -.00000033  00000-0  00000+0 0  9731
2 28577 003.3285 236.1280 6995468 062.0274 022.3980 02.23373701 74117
